SAUDISAT 1C             
1 27607U 02058C   23185.49465461  .00000819  00000+0  13078-3 0  9994
2 27607  64.5529 211.8661 0067408 221.2526 138.3473 14.77370825104991
SAUDISAT 2              
1 28371U 04025F   23186.33481021  .00000366  00000+0  95856-4 0  9995
2 28371  98.4333 150.1452 0025681  10.7836 349.3906 14.54959463  8954
SAUDISAT 3              
1 31118U 07012B   23186.32437455  .00000327  00000+0  63055-4 0  9991
2 31118  98.0141 130.2438 0016294  59.8327 300.4491 14.69712418869384
PISAT                   
1 41784U 16059B   23186.36616327  .00000910  00000+0  17809-3 0  9996
2 41784  97.8683 218.9081 0032120  39.7445 320.6104 14.64750467361725
FLYING LAPTOP           
1 42831U 17042G   23186.38433014  .00001171  00000+0  11702-3 0  9991
2 42831  97.3904  23.0317 0013919 159.0150 201.1645 14.93152867325209
SALSAT                  
1 46495U 20068K   23172.83279536  .00004036  00000+0  26739-3 0  9994
2 46495  97.7704 120.8847 0017405 103.1112 257.2059 15.07774126149778
